[{"OBJECT_NAME":"STARLINK-4670","OBJECT_ID":"2022-107AW","EPOCH":"2026-03-11T12:14:26.528064","MEAN_MOTION":15.08832775,"ECCENTRICITY":0.0001351,"INCLINATION":53.2165,"RA_OF_ASC_NODE":255.5743,"ARG_OF_PERICENTER":75.8325,"MEAN_ANOMALY":284.2817,"EPHEMERIS_TYPE":0,"CLASSIFICATION_TYPE":"U","NORAD_CAT_ID":53744,"ELEMENT_SET_NO":999,"REV_AT_EPOCH":19487,"BSTAR":-6.685e-5,"MEAN_MOTION_DOT":-1.351e-5,"MEAN_MOTION_DDOT":0},{"OBJECT_NAME":"STARLINK-4656","OBJECT_ID":"2022-107AX","EPOCH":"2026-03-10T23:04:56.112384","MEAN_MOTION":15.08841595,"ECCENTRICITY":0.0001652,"INCLINATION":53.2158,"RA_OF_ASC_NODE":258.54,"ARG_OF_PERICENTER":82.1511,"MEAN_ANOMALY":277.9669,"EPHEMERIS_TYPE":0,"CLASSIFICATION_TYPE":"U","NORAD_CAT_ID":53745,"ELEMENT_SET_NO":999,"REV_AT_EPOCH":19478,"BSTAR":0.000269,"MEAN_MOTION_DOT":3.996e-5,"MEAN_MOTION_DDOT":0},{"OBJECT_NAME":"STARLINK-4589","OBJECT_ID":"2022-107AY","EPOCH":"2026-03-11T11:37:25.123584","MEAN_MOTION":15.08833884,"ECCENTRICITY":0.000137,"INCLINATION":53.2165,"RA_OF_ASC_NODE":256.1184,"ARG_OF_PERICENTER":95.8769,"MEAN_ANOMALY":264.238,"EPHEMERIS_TYPE":0,"CLASSIFICATION_TYPE":"U","NORAD_CAT_ID":53746,"ELEMENT_SET_NO":999,"REV_AT_EPOCH":19486,"BSTAR":-7.2375e-6,"MEAN_MOTION_DOT":-4.03e-6,"MEAN_MOTION_DDOT":0},{"OBJECT_NAME":"STARLINK-4612","OBJECT_ID":"2022-107BC","EPOCH":"2026-03-11T11:58:38.523072","MEAN_MOTION":15.0883553,"ECCENTRICITY":0.0001311,"INCLINATION":53.2163,"RA_OF_ASC_NODE":256.207,"ARG_OF_PERICENTER":108.8708,"MEAN_ANOMALY":251.2427,"EPHEMERIS_TYPE":0,"CLASSIFICATION_TYPE":"U","NORAD_CAT_ID":53750,"ELEMENT_SET_NO":999,"REV_AT_EPOCH":19487,"BSTAR":8.1779e-5,"MEAN_MOTION_DOT":1.014e-5,"MEAN_MOTION_DDOT":0},{"OBJECT_NAME":"STARLINK-4718","OBJECT_ID":"2022-111A","EPOCH":"2026-03-10T19:03:47.292768","MEAN_MOTION":15.08838533,"ECCENTRICITY":0.00012423,"INCLINATION":53.2165,"RA_OF_ASC_NODE":279.0894,"ARG_OF_PERICENTER":87.0516,"MEAN_ANOMALY":273.0618,"EPHEMERIS_TYPE":0,"CLASSIFICATION_TYPE":"U","NORAD_CAT_ID":53773,"ELEMENT_SET_NO":999,"REV_AT_EPOCH":19401,"BSTAR":6.2184083e-5,"MEAN_MOTION_DOT":7.02e-6,"MEAN_MOTION_DDOT":0},{"OBJECT_NAME":"STARLINK-4719","OBJECT_ID":"2022-111B","EPOCH":"2026-03-10T23:44:38.168160","MEAN_MOTION":15.08855646,"ECCENTRICITY":0.00013062,"INCLINATION":53.2157,"RA_OF_ASC_NODE":278.1735,"ARG_OF_PERICENTER":91.1778,"MEAN_ANOMALY":268.9363,"EPHEMERIS_TYPE":0,"CLASSIFICATION_TYPE":"U","NORAD_CAT_ID":53774,"ELEMENT_SET_NO":999,"REV_AT_EPOCH":19390,"BSTAR":0.00012672887,"MEAN_MOTION_DOT":1.73e-5,"MEAN_MOTION_DDOT":0},{"OBJECT_NAME":"STARLINK-4722","OBJECT_ID":"2022-111C","EPOCH":"2026-03-10T22:53:01.879008","MEAN_MOTION":15.08842416,"ECCENTRICITY":0.0001287,"INCLINATION":53.2171,"RA_OF_ASC_NODE":268.6828,"ARG_OF_PERICENTER":88.4463,"MEAN_ANOMALY":271.6677,"EPHEMERIS_TYPE":0,"CLASSIFICATION_TYPE":"U","NORAD_CAT_ID":53775,"ELEMENT_SET_NO":999,"REV_AT_EPOCH":19388,"BSTAR":3.313e-5,"MEAN_MOTION_DOT":2.39e-6,"MEAN_MOTION_DDOT":0},{"OBJECT_NAME":"STARLINK-4664","OBJECT_ID":"2022-111E","EPOCH":"2026-03-11T06:39:20.737440","MEAN_MOTION":15.08840949,"ECCENTRICITY":0.0001539,"INCLINATION":53.2171,"RA_OF_ASC_NODE":267.1499,"ARG_OF_PERICENTER":82.4878,"MEAN_ANOMALY":277.6289,"EPHEMERIS_TYPE":0,"CLASSIFICATION_TYPE":"U","NORAD_CAT_ID":53777,"ELEMENT_SET_NO":999,"REV_AT_EPOCH":19393,"BSTAR":4.9422e-5,"MEAN_MOTION_DOT":4.99e-6,"MEAN_MOTION_DDOT":0},{"OBJECT_NAME":"STARLINK-4709","OBJECT_ID":"2022-111F","EPOCH":"2026-03-10T23:21:25.788096","MEAN_MOTION":15.0884166,"ECCENTRICITY":0.000115,"INCLINATION":53.2166,"RA_OF_ASC_NODE":273.087,"ARG_OF_PERICENTER":98.3738,"MEAN_ANOMALY":261.7384,"EPHEMERIS_TYPE":0,"CLASSIFICATION_TYPE":"U","NORAD_CAT_ID":53778,"ELEMENT_SET_NO":999,"REV_AT_EPOCH":19382,"BSTAR":-4.2348e-6,"MEAN_MOTION_DOT":-3.55e-6,"MEAN_MOTION_DDOT":0},{"OBJECT_NAME":"STARLINK-4706","OBJECT_ID":"2022-111G","EPOCH":"2026-03-11T12:55:35.556672","MEAN_MOTION":15.08837947,"ECCENTRICITY":0.0001294,"INCLINATION":53.2172,"RA_OF_ASC_NODE":265.9373,"ARG_OF_PERICENTER":93.511,"MEAN_ANOMALY":266.603,"EPHEMERIS_TYPE":0,"CLASSIFICATION_TYPE":"U","NORAD_CAT_ID":53779,"ELEMENT_SET_NO":999,"REV_AT_EPOCH":19397,"BSTAR":2.0935e-5,"MEAN_MOTION_DOT":4.5e-7,"MEAN_MOTION_DDOT":0},{"OBJECT_NAME":"STARLINK-4678","OBJECT_ID":"2022-111H","EPOCH":"2026-03-11T13:06:11.987712","MEAN_MOTION":15.0883863,"ECCENTRICITY":0.0001404,"INCLINATION":53.216,"RA_OF_ASC_NODE":265.9823,"ARG_OF_PERICENTER":85.8906,"MEAN_ANOMALY":274.2246,"EPHEMERIS_TYPE":0,"CLASSIFICATION_TYPE":"U","NORAD_CAT_ID":53780,"ELEMENT_SET_NO":999,"REV_AT_EPOCH":19397,"BSTAR":1.0869e-5,"MEAN_MOTION_DOT":-1.15e-6,"MEAN_MOTION_DDOT":0},{"OBJECT_NAME":"STARLINK-4462","OBJECT_ID":"2022-111J","EPOCH":"2026-03-11T12:39:40.568832","MEAN_MOTION":15.08837003,"ECCENTRICITY":0.0001519,"INCLINATION":53.2168,"RA_OF_ASC_NODE":265.869,"ARG_OF_PERICENTER":105.0174,"MEAN_ANOMALY":255.0987,"EPHEMERIS_TYPE":0,"CLASSIFICATION_TYPE":"U","NORAD_CAT_ID":53781,"ELEMENT_SET_NO":999,"REV_AT_EPOCH":19397,"BSTAR":3.6107e-5,"MEAN_MOTION_DOT":2.87e-6,"MEAN_MOTION_DDOT":0},{"OBJECT_NAME":"STARLINK-4679","OBJECT_ID":"2022-111K","EPOCH":"2026-03-11T12:50:16.866816","MEAN_MOTION":15.08840182,"ECCENTRICITY":0.0001299,"INCLINATION":53.2175,"RA_OF_ASC_NODE":265.9135,"ARG_OF_PERICENTER":81.9598,"MEAN_ANOMALY":278.1542,"EPHEMERIS_TYPE":0,"CLASSIFICATION_TYPE":"U","NORAD_CAT_ID":53782,"ELEMENT_SET_NO":999,"REV_AT_EPOCH":19397,"BSTAR":6.7489e-6,"MEAN_MOTION_DOT":-1.8e-6,"MEAN_MOTION_DDOT":0},{"OBJECT_NAME":"STARLINK-4536","OBJECT_ID":"2022-111L","EPOCH":"2026-03-10T23:45:58.619520","MEAN_MOTION":15.08838855,"ECCENTRICITY":0.00019268,"INCLINATION":53.2168,"RA_OF_ASC_NODE":268.2018,"ARG_OF_PERICENTER":101.9496,"MEAN_ANOMALY":258.1712,"EPHEMERIS_TYPE":0,"CLASSIFICATION_TYPE":"U","NORAD_CAT_ID":53783,"ELEMENT_SET_NO":999,"REV_AT_EPOCH":19389,"BSTAR":5.3985962e-5,"MEAN_MOTION_DOT":5.71e-6,"MEAN_MOTION_DDOT":0},{"OBJECT_NAME":"STARLINK-4687","OBJECT_ID":"2022-111M","EPOCH":"2026-03-11T12:45:00.224640","MEAN_MOTION":15.08843083,"ECCENTRICITY":0.0001235,"INCLINATION":53.2163,"RA_OF_ASC_NODE":265.8918,"ARG_OF_PERICENTER":83.1417,"MEAN_ANOMALY":276.9716,"EPHEMERIS_TYPE":0,"CLASSIFICATION_TYPE":"U","NORAD_CAT_ID":53784,"ELEMENT_SET_NO":999,"REV_AT_EPOCH":19397,"BSTAR":0.00019427,"MEAN_MOTION_DOT":2.806e-5,"MEAN_MOTION_DDOT":0},{"OBJECT_NAME":"STARLINK-4743","OBJECT_ID":"2022-111Q","EPOCH":"2026-03-11T12:18:27.324864","MEAN_MOTION":15.08842569,"ECCENTRICITY":0.0001247,"INCLINATION":53.2155,"RA_OF_ASC_NODE":265.7784,"ARG_OF_PERICENTER":99.5355,"MEAN_ANOMALY":260.5778,"EPHEMERIS_TYPE":0,"CLASSIFICATION_TYPE":"U","NORAD_CAT_ID":53787,"ELEMENT_SET_NO":999,"REV_AT_EPOCH":19397,"BSTAR":5.4784e-5,"MEAN_MOTION_DOT":5.84e-6,"MEAN_MOTION_DDOT":0},{"OBJECT_NAME":"STARLINK-4666","OBJECT_ID":"2022-111S","EPOCH":"2026-03-11T05:40:58.008864","MEAN_MOTION":15.08862854,"ECCENTRICITY":0.0001504,"INCLINATION":53.2158,"RA_OF_ASC_NODE":266.9017,"ARG_OF_PERICENTER":92.9027,"MEAN_ANOMALY":267.2137,"EPHEMERIS_TYPE":0,"CLASSIFICATION_TYPE":"U","NORAD_CAT_ID":53789,"ELEMENT_SET_NO":999,"REV_AT_EPOCH":19392,"BSTAR":-0.00010468,"MEAN_MOTION_DOT":-1.955e-5,"MEAN_MOTION_DDOT":0}]
