STARLINK-4670           
1 53744U 22107AW  26070.51002926 -.00001351  00000+0 -66850-4 0  9995
2 53744  53.2165 255.5743 0001351  75.8325 284.2817 15.08832775194875
STARLINK-4656           
1 53745U 22107AX  26069.96176056  .00003996  00000+0  26900-3 0  9995
2 53745  53.2158 258.5400 0001652  82.1511 277.9669 15.08841595194787
STARLINK-4589           
1 53746U 22107AY  26070.48431856 -.00000403  00000+0 -72375-5 0  9998
2 53746  53.2165 256.1184 0001370  95.8769 264.2380 15.08833884194862
STARLINK-4612           
1 53750U 22107BC  26070.49905698  .00001014  00000+0  81779-4 0  9998
2 53750  53.2163 256.2070 0001311 108.8708 251.2427 15.08835530194872
STARLINK-4718           
1 53773U 22111A   26069.79429737  .00000702  00000+0  62184-4 0  9996
2 53773  53.2165 279.0894 0001242  87.0516 273.0618 15.08838533194010
STARLINK-4719           
1 53774U 22111B   26069.98933065  .00001730  00000+0  12673-3 0  9991
2 53774  53.2157 278.1735 0001306  91.1778 268.9363 15.08855646193904
STARLINK-4722           
1 53775U 22111C   26069.95349397  .00000239  00000+0  33130-4 0  9993
2 53775  53.2171 268.6828 0001287  88.4463 271.6677 15.08842416193883
STARLINK-4664           
1 53777U 22111E   26070.27732335  .00000499  00000+0  49422-4 0  9999
2 53777  53.2171 267.1499 0001539  82.4878 277.6289 15.08840949193937
STARLINK-4709           
1 53778U 22111F   26069.97321514 -.00000355  00000+0 -42348-5 0  9992
2 53778  53.2166 273.0870 0001150  98.3738 261.7384 15.08841660193820
STARLINK-4706           
1 53779U 22111G   26070.53860598  .00000045  00000+0  20935-4 0  9998
2 53779  53.2172 265.9373 0001294  93.5110 266.6030 15.08837947193977
STARLINK-4678           
1 53780U 22111H   26070.54597208 -.00000115  00000+0  10869-4 0  9990
2 53780  53.2160 265.9823 0001404  85.8906 274.2246 15.08838630193970
STARLINK-4462           
1 53781U 22111J   26070.52755288  .00000287  00000+0  36107-4 0  9995
2 53781  53.2168 265.8690 0001519 105.0174 255.0987 15.08837003193971
STARLINK-4679           
1 53782U 22111K   26070.53491744 -.00000180  00000+0  67489-5 0  9992
2 53782  53.2175 265.9135 0001299  81.9598 278.1542 15.08840182193977
STARLINK-4536           
1 53783U 22111L   26069.99026180  .00000571  00000+0  53986-4 0  9998
2 53783  53.2168 268.2018 0001926 101.9496 258.1712 15.08838855193895
STARLINK-4687           
1 53784U 22111M   26070.53125260  .00002806  00000+0  19427-3 0  9994
2 53784  53.2163 265.8918 0001235  83.1417 276.9716 15.08843083193970
STARLINK-4743           
1 53787U 22111Q   26070.51281626  .00000584  00000+0  54784-4 0  9991
2 53787  53.2155 265.7784 0001247  99.5355 260.5778 15.08842569193974
STARLINK-4666           
1 53789U 22111S   26070.23678251 -.00001955  00000+0 -10468-3 0  9991
2 53789  53.2158 266.9017 0001504  92.9027 267.2137 15.08862854193927
